CS1                     
1 49261U 21088B   26068.75173904  .00015722  00000+0  51176-3 0  9998
2 49261  97.3882 132.1684 0014129  78.0335 282.2490 15.31848439245182
STARLINK-30613          
1 58077U 23160C   26068.07810539 -.00002148  00000+0 -70441-4 0  9990
2 58077  42.9982  81.2216 0000971 276.1310  83.9431 15.26737117132868
